OBJECT_NAME,OBJECT_ID,EPOCH,MEAN_MOTION,ECCENTRICITY,INCLINATION,RA_OF_ASC_NODE,ARG_OF_PERICENTER,MEAN_ANOMALY,EPHEMERIS_TYPE,CLASSIFICATION_TYPE,NORAD_CAT_ID,ELEMENT_SET_NO,REV_AT_EPOCH,BSTAR,MEAN_MOTION_DOT,MEAN_MOTION_DDOT
BEIDOU-2 IGSO-5 (C10),2011-073A,2026-06-24T15:46:07.226112,1.00272136,.01142233,47.6633,271.4526,222.0346,107.5350,0,U,37948,999,5320,0,-.196E-5,0
LUCH 5A (SDCM/PRN 140),2011-074B,2026-07-01T14:14:53.727360,1.00272770,.00027123,8.7883,73.5986,41.0026,185.7060,0,U,37951,999,5319,0,-.45E-6,0
BEIDOU-2 G5 (C05),2012-008A,2026-07-01T09:10:31.709280,1.00277340,.00084007,3.6079,69.6156,275.6384,130.6227,0,U,38091,999,5251,0,.63E-6,0
BEIDOU-2 M3 (C11),2012-018A,2026-06-29T00:02:32.501184,1.86230055,.00203498,55.7466,304.4764,273.2803,86.4846,0,U,38250,999,9616,0,-.84E-6,0
BEIDOU-2 M4 (C12),2012-018B,2026-07-01T01:57:58.608576,1.86229793,.00115776,55.6449,303.6195,274.1634,85.7126,0,U,38251,999,9620,0,-.69E-6,0
SES-5 (EGNOS/PRN 136),2012-036A,2026-07-01T03:47:10.082976,1.00272231,.00022963,0.0474,317.1039,142.3984,241.4886,0,U,38652,999,4459,0,.44E-6,0
BEIDOU-2 M6 (C14),2012-050B,2026-06-27T00:47:22.523712,1.86231134,.00134699,56.5526,62.5688,358.4918,1.5505,0,U,38775,999,9349,0,-.8E-6,0
GSAT-10 (GAGAN/PRN 128),2012-051B,2026-07-01T11:00:06.964416,1.00270895,.00081364,0.0524,249.9589,202.8463,74.7542,0,U,38779,999,5024,0,-.154E-5,0
GPS BIIF-3  (PRN 24),2012-053A,2026-06-30T18:39:32.955264,2.00567780,.01811099,53.5880,143.0427,65.9708,295.8698,0,U,38833,999,9971,0,.24E-6,0
GSAT0103 (GALILEO-FM3),2012-055A,2026-06-29T19:03:19.372608,1.70473507,.00044239,55.8136,101.1997,307.4227,52.5245,0,U,38857,999,8522,0,-.25E-6,0
BEIDOU-2 G6 (C02),2012-059A,2026-07-01T02:27:05.847264,1.00270758,.00095334,4.4555,73.3789,329.4837,357.0970,0,U,38953,999,5004,0,-.168E-5,0
LUCH 5B (SDCM/PRN 125),2012-061A,2026-06-30T10:34:32.570400,1.00272809,.00030012,10.5117,49.7507,132.8087,238.3434,0,U,38977,999,4974,0,-.133E-5,0
COSMOS 2485 (747),2013-019A,2026-06-28T15:23:45.642336,2.13103400,.00228978,65.4258,73.2198,232.6425,127.1980,0,U,39155,999,10252,0,-.37E-6,0
GPS BIIF-4  (PRN 27),2013-023A,2026-07-01T03:26:30.540192,2.00563527,.01414308,54.4932,268.4048,51.0773,310.2414,0,U,39166,999,9616,0,-.8E-7,0
IRNSS-1A,2013-034A,2026-06-30T17:45:45.502272,1.00278919,.0017845,35.7497,63.6762,181.6086,355.0002,0,U,39199,999,4750,0,.6E-6,0
GPS BIIF-5  (PRN 30),2014-008A,2026-07-01T03:29:00.393216,2.00560743,.00842222,53.6565,148.7506,231.4486,127.7568,0,U,39533,999,8996,0,.33E-6,0
ASTRA 5B (EGNOS/PRN 123),2014-011B,2026-07-01T14:08:25.030176,1.00274198,.00022497,0.0796,301.5087,162.9402,50.8008,0,U,39617,999,4481,0,.148E-5,0
COSMOS 2492 (754),2014-012A,2026-07-01T09:58:54.453792,2.13103542,.00102275,65.2891,313.4520,321.7178,38.2085,0,U,39620,999,9554,0,-.54E-6,0
IRNSS-1B,2014-017A,2026-06-30T17:45:30.525696,1.00271175,.00228857,28.9013,240.1691,193.6011,166.4720,0,U,39635,999,4493,0,.148E-5,0
LUCH 5V (SDCM/PRN 141),2014-023A,2026-07-01T14:28:47.661024,1.00270445,.00026073,5.1671,69.6028,55.2000,106.7992,0,U,39727,999,4450,0,-.261E-5,0
GPS BIIF-6  (PRN 06),2014-026A,2026-07-01T10:06:03.472128,2.00560130,.00381083,56.4908,330.9637,326.2206,33.5310,0,U,39741,999,8882,0,-.82E-6,0
COSMOS 2500 (755),2014-032A,2026-07-01T14:03:05.784768,2.13106189,.00078124,65.2235,313.1924,187.4639,172.5247,0,U,40001,999,9376,0,-.53E-6,0
GPS BIIF-7  (PRN 09),2014-045A,2026-06-28T12:30:25.283808,2.00559298,.0033785,55.3602,88.0134,118.2932,242.0599,0,U,40105,999,8630,0,-.52E-6,0
GSAT0201 (GALILEO 5),2014-050A,2026-06-29T06:35:26.939040,1.85520280,.16762517,48.8619,272.9404,179.8513,180.2703,0,U,40128,999,7854,0,-.39E-6,0
GSAT0202 (GALILEO 6),2014-050B,2026-06-30T14:35:38.438592,1.85520713,.16776984,48.8773,271.9714,180.6428,179.1780,0,U,40129,999,8073,0,-.31E-6,0
IRNSS-1C,2014-061A,2026-06-28T19:41:49.058880,1.00274876,.00221059,6.5464,88.7100,4.4529,202.1283,0,U,40269,999,4280,0,-.156E-5,0
GPS BIIF-8  (PRN 03),2014-068A,2026-06-30T21:11:23.477568,2.00577197,.00673114,56.9970,30.4273,71.0884,289.7026,0,U,40294,999,8548,0,-.62E-6,0
COSMOS 2501 (702K),2014-075A,2026-06-30T10:33:31.413888,2.13101453,.00226357,63.6170,189.9132,212.5837,147.3119,0,U,40315,999,9013,0,.79E-6,0
GPS BIIF-9  (PRN 26),2015-013A,2026-07-01T12:31:41.786688,2.00550585,.01099114,53.1671,203.5847,40.2564,320.6065,0,U,40534,999,8211,0,.67E-6,0
GSAT0203 (GALILEO 7),2015-017A,2026-07-01T06:58:44.031360,1.70476409,.00022941,56.7819,341.2117,263.0128,96.9526,0,U,40544,999,6944,0,-.82E-6,0
GSAT0204 (GALILEO 8),2015-017B,2026-06-30T08:57:46.055808,1.70475898,.0002318,56.7889,341.2552,237.2395,122.7292,0,U,40545,999,3247,0,-.85E-6,0
